{
  "norad_id": 34941,
  "name": "SES-7 (PROTOSTAR 2)",
  "history": [
    {
      "epoch": "2026-03-28T21:50:38.837472Z",
      "apogee_km": 35794.02036932496,
      "perigee_km": 35779.01312576312,
      "latitude_deg": 0.01850113455146904,
      "longitude_deg": 108.23455963781262,
      "height_km": 35782.744539009494,
      "semi_major_axis_km": 42164.65374754404,
      "eccentricity": 0.00017796,
      "inclination_deg": 0.0743,
      "raan_deg": 77.7835,
      "arg_perigee_deg": 248.4997,
      "mean_anomaly_deg": 295.932,
      "mean_motion_rev_day": 1.00272064
    },
    {
      "epoch": "2026-03-28T23:51:20.831040Z",
      "apogee_km": 35794.00066111837,
      "perigee_km": 35779.057503458804,
      "latitude_deg": -0.017271086760747435,
      "longitude_deg": 108.24143852497302,
      "height_km": 35779.843654704375,
      "semi_major_axis_km": 42164.66608228859,
      "eccentricity": 0.0001772,
      "inclination_deg": 0.0746,
      "raan_deg": 77.7962,
      "arg_perigee_deg": 248.8102,
      "mean_anomaly_deg": 325.8664,
      "mean_motion_rev_day": 1.0027202
    },
    {
      "epoch": "2026-03-29T23:48:54.123840Z",
      "apogee_km": 35793.86461258366,
      "perigee_km": 35779.41221416297,
      "latitude_deg": -0.01627184039608983,
      "longitude_deg": 108.24051497248297,
      "height_km": 35780.354899287566,
      "semi_major_axis_km": 42164.77541337332,
      "eccentricity": 0.00017138,
      "inclination_deg": 0.0773,
      "raan_deg": 77.8358,
      "arg_perigee_deg": 251.8591,
      "mean_anomaly_deg": 323.1512,
      "mean_motion_rev_day": 1.0027163
    },
    {
      "epoch": "2026-03-30T11:23:38.566752Z",
      "apogee_km": 35793.841282824775,
      "perigee_km": 35779.54487553813,
      "latitude_deg": 0.008572556411390138,
      "longitude_deg": 108.26436997073606,
      "height_km": 35791.268504111446,
      "semi_major_axis_km": 42164.830079181454,
      "eccentricity": 0.00016953,
      "inclination_deg": 0.0785,
      "raan_deg": 77.8724,
      "arg_perigee_deg": 253.6735,
      "mean_anomaly_deg": 135.4602,
      "mean_motion_rev_day": 1.00271435
    },
    {
      "epoch": "2026-03-30T20:21:05.897952Z",
      "apogee_km": 35793.75024952994,
      "perigee_km": 35779.712721513744,
      "latitude_deg": 0.043649565551327534,
      "longitude_deg": 108.23077401141666,
      "height_km": 35786.36486324193,
      "semi_major_axis_km": 42164.868485521845,
      "eccentricity": 0.00016646,
      "inclination_deg": 0.0795,
      "raan_deg": 77.8707,
      "arg_perigee_deg": 254.8332,
      "mean_anomaly_deg": 269.034,
      "mean_motion_rev_day": 1.00271298
    },
    {
      "epoch": "2026-03-31T20:23:05.100576Z",
      "apogee_km": 35793.62375020665,
      "perigee_km": 35780.06349243884,
      "latitude_deg": 0.042876759109127915,
      "longitude_deg": 108.22644792676687,
      "height_km": 35786.74554919322,
      "semi_major_axis_km": 42164.98062132275,
      "eccentricity": 0.0001608,
      "inclination_deg": 0.082,
      "raan_deg": 77.9252,
      "arg_perigee_deg": 258.5613,
      "mean_anomaly_deg": 266.7329,
      "mean_motion_rev_day": 1.00270898
    },
    {
      "epoch": "2026-04-01T17:35:38.643360Z",
      "apogee_km": 35793.548156722856,
      "perigee_km": 35780.34205300761,
      "latitude_deg": 0.06884772020637125,
      "longitude_deg": 108.22693347490205,
      "height_km": 35791.36250245912,
      "semi_major_axis_km": 42165.082104865236,
      "eccentricity": 0.0001566,
      "inclination_deg": 0.0841,
      "raan_deg": 78.0447,
      "arg_perigee_deg": 262.1336,
      "mean_anomaly_deg": 222.0487,
      "mean_motion_rev_day": 1.00270536
    },
    {
      "epoch": "2026-04-02T18:31:05.121120Z",
      "apogee_km": 35793.46575867732,
      "perigee_km": 35780.67283508684,
      "latitude_deg": 0.06283453002050804,
      "longitude_deg": 108.21677163179848,
      "height_km": 35790.45683484056,
      "semi_major_axis_km": 42165.20629688208,
      "eccentricity": 0.0001517,
      "inclination_deg": 0.0864,
      "raan_deg": 78.1235,
      "arg_perigee_deg": 266.2364,
      "mean_anomaly_deg": 232.7458,
      "mean_motion_rev_day": 1.00270093
    },
    {
      "epoch": "2026-04-02T18:31:05.121984Z",
      "apogee_km": 35793.46786693763,
      "perigee_km": 35780.67072682653,
      "latitude_deg": 0.06283453258637318,
      "longitude_deg": 108.2167634631005,
      "height_km": 35790.45812221013,
      "semi_major_axis_km": 42165.20629688208,
      "eccentricity": 0.00015175,
      "inclination_deg": 0.0864,
      "raan_deg": 78.1235,
      "arg_perigee_deg": 266.2364,
      "mean_anomaly_deg": 232.7458,
      "mean_motion_rev_day": 1.00270093
    },
    {
      "epoch": "2026-04-03T20:11:12.394752Z",
      "apogee_km": 35794.876090415244,
      "perigee_km": 35777.66457934115,
      "latitude_deg": 0.04071073569060692,
      "longitude_deg": 108.22574415683697,
      "height_km": 35783.75367586813,
      "semi_major_axis_km": 42164.407334878204,
      "eccentricity": 0.0002041,
      "inclination_deg": 0.0887,
      "raan_deg": 78.2199,
      "arg_perigee_deg": 241.2382,
      "mean_anomaly_deg": 283.7527,
      "mean_motion_rev_day": 1.00272943
    },
    {
      "epoch": "2026-04-03T23:36:40.237920Z",
      "apogee_km": 35794.87319309212,
      "perigee_km": 35777.73587747452,
      "latitude_deg": -0.021515080456406648,
      "longitude_deg": 108.23857696026539,
      "height_km": 35778.07043787929,
      "semi_major_axis_km": 42164.441535283324,
      "eccentricity": 0.00020322,
      "inclination_deg": 0.089,
      "raan_deg": 78.2732,
      "arg_perigee_deg": 241.555,
      "mean_anomaly_deg": 334.8897,
      "mean_motion_rev_day": 1.00272821
    },
    {
      "epoch": "2026-04-05T13:15:29.525184Z",
      "apogee_km": 35794.43671832009,
      "perigee_km": 35778.56257591518,
      "latitude_deg": 0.055442422852479294,
      "longitude_deg": 108.25070600160842,
      "height_km": 35793.89852239403,
      "semi_major_axis_km": 42164.63664711764,
      "eccentricity": 0.00018824,
      "inclination_deg": 0.0922,
      "raan_deg": 78.557,
      "arg_perigee_deg": 244.8512,
      "mean_anomaly_deg": 177.5652,
      "mean_motion_rev_day": 1.00272125
    },
    {
      "epoch": "2026-04-05T20:06:17.897760Z",
      "apogee_km": 35794.40007193613,
      "perigee_km": 35778.681080135786,
      "latitude_deg": 0.0368423882680642,
      "longitude_deg": 108.22895528854694,
      "height_km": 35784.71366792952,
      "semi_major_axis_km": 42164.67757603596,
      "eccentricity": 0.0001864,
      "inclination_deg": 0.0927,
      "raan_deg": 78.5575,
      "arg_perigee_deg": 245.5108,
      "mean_anomaly_deg": 279.8884,
      "mean_motion_rev_day": 1.00271979
    },
    {
      "epoch": "2026-04-06T05:43:38.749152Z",
      "apogee_km": 35794.35860563468,
      "perigee_km": 35778.83692347315,
      "latitude_deg": -0.06895157176947311,
      "longitude_deg": 108.26876949468148,
      "height_km": 35782.69705108435,
      "semi_major_axis_km": 42164.73476455392,
      "eccentricity": 0.00018406,
      "inclination_deg": 0.0935,
      "raan_deg": 78.6649,
      "arg_perigee_deg": 245.8154,
      "mean_anomaly_deg": 64.2088,
      "mean_motion_rev_day": 1.00271775
    },
    {
      "epoch": "2026-04-07T20:01:26.429952Z",
      "apogee_km": 35794.115160425994,
      "perigee_km": 35779.53451662223,
      "latitude_deg": 0.03484674832766366,
      "longitude_deg": 108.22716233569392,
      "height_km": 35785.38962947613,
      "semi_major_axis_km": 42164.96183852412,
      "eccentricity": 0.0001729,
      "inclination_deg": 0.0967,
      "raan_deg": 79.042,
      "arg_perigee_deg": 248.1615,
      "mean_anomaly_deg": 277.5051,
      "mean_motion_rev_day": 1.00270965
    },
    {
      "epoch": "2026-04-08T13:08:14.755200Z",
      "apogee_km": 35794.04179844576,
      "perigee_km": 35779.82542323861,
      "latitude_deg": 0.06701850307670772,
      "longitude_deg": 108.2456841478325,
      "height_km": 35793.47878978856,
      "semi_major_axis_km": 42165.07061084219,
      "eccentricity": 0.00016858,
      "inclination_deg": 0.0983,
      "raan_deg": 79.3039,
      "arg_perigee_deg": 248.5204,
      "mean_anomaly_deg": 174.2858,
      "mean_motion_rev_day": 1.00270577
    },
    {
      "epoch": "2026-04-09T18:13:49.512576Z",
      "apogee_km": 35793.97299375408,
      "perigee_km": 35780.28614822515,
      "latitude_deg": 0.06728844839683598,
      "longitude_deg": 108.21920681899394,
      "height_km": 35788.871368800275,
      "semi_major_axis_km": 42165.26657098962,
      "eccentricity": 0.0001623,
      "inclination_deg": 0.101,
      "raan_deg": 79.5139,
      "arg_perigee_deg": 249.2478,
      "mean_anomaly_deg": 250.9316,
      "mean_motion_rev_day": 1.00269878
    },
    {
      "epoch": "2026-04-09T21:39:12.597696Z",
      "apogee_km": 35793.69345545082,
      "perigee_km": 35777.79767172435,
      "latitude_deg": -0.002587304518792263,
      "longitude_deg": 108.226555247542,
      "height_km": 35780.44964231021,
      "semi_major_axis_km": 42163.88256358759,
      "eccentricity": 0.0001885,
      "inclination_deg": 0.1014,
      "raan_deg": 79.574,
      "arg_perigee_deg": 244.3062,
      "mean_anomaly_deg": 307.307,
      "mean_motion_rev_day": 1.00274815
    },
    {
      "epoch": "2026-04-11T18:08:38.107104Z",
      "apogee_km": 35793.75151759583,
      "perigee_km": 35778.49648796503,
      "latitude_deg": 0.0717325127827901,
      "longitude_deg": 108.23671154937516,
      "height_km": 35787.3395228556,
      "semi_major_axis_km": 42164.26100278043,
      "eccentricity": 0.0001809,
      "inclination_deg": 0.1058,
      "raan_deg": 79.8118,
      "arg_perigee_deg": 243.4959,
      "mean_anomaly_deg": 257.0779,
      "mean_motion_rev_day": 1.00273465
    }
  ]
}